FLOCK 4BE-12            
1 60560U 24149CW  26087.85234161  .00151427  00000+0  25306-2 0  9997
2 60560  97.3716 172.2375 0007277 212.9251 147.1549 15.51349020 90037
FLOCK 4BE-3             
1 60561U 24149CX  26087.78574301  .00022097  00000+0  57468-3 0  9998
2 60561  97.3718 171.0781 0004548 197.1834 162.9258 15.38925748 89961
FLOCK 4BE-19            
1 60563U 24149CZ  26087.76496134  .00025937  00000+0  62508-3 0  9992
2 60563  97.3762 172.2373 0004306 201.6408 158.4657 15.41217566 90020
PELICAN-2               
1 62631U 25009Y   26087.82600948  .00047670  00000+0  11785-2 0  9991
2 62631  97.3964 178.3587 0005194 155.0098 205.1401 15.40308790 67186
PELICAN-3               
1 65315U 25188A   26086.21204372  .00022666  00000+0  55766-3 0  9990
2 65315  97.2211 163.5554 0004743 201.4975 158.6074 15.40613176 32694
PELICAN-4               
1 65316U 25188B   26087.20198627  .00010149  00000+0  25163-3 0  9997
2 65316  97.2293 164.6477 0003652 210.3305 149.7731 15.40566556 32842
